ONEWEB-0458             
1 51648U 22012AC  26018.52825214 -.00000387  00000+0 -11457-2 0  9996
2 51648  87.8774  66.0840 0001905  95.4165 264.7179 13.10370501189708
ONEWEB-0461             
1 51649U 22012AD  26018.63483578  .00000063  00000+0  12782-3 0  9994
2 51649  87.9092  35.5688 0001832  96.5358 263.5982 13.17650374194193
ONEWEB-0463             
1 51650U 22012AE  26018.46441408 -.00000003  00000+0 -41889-4 0  9990
2 51650  87.9080  35.6405 0001811  96.6302 263.5036 13.17648549193951
ONEWEB-0464             
1 51651U 22012AF  26018.52493097 -.00000265  00000+0 -79497-3 0  9994
2 51651  87.8763  66.1174 0001539  94.9189 265.2114 13.10370665189722
ONEWEB-0468             
1 51652U 22012AG  26018.53156880 -.00000513  00000+0 -15053-2 0  9995
2 51652  87.8767  66.1096 0001735  92.4833 267.6493 13.10371359189702
ONEWEB-0473             
1 51653U 22012AH  26018.59299793  .00000152  00000+0  39978-3 0  9993
2 51653  87.8761  66.1001 0001816  95.0476 265.0859 13.10370342189715
ONEWEB-0474             
1 51654U 22012AJ  26018.58470444  .00000564  00000+0  15789-2 0  9997
2 51654  87.8773  66.0718 0001644  90.5007 269.6309 13.10371702189702
ONEWEB-0475             
1 51655U 22012AK  26018.55215526  .00000051  00000+0  97314-4 0  9990
2 51655  87.9079  35.6141 0001910  70.9958 289.1381 13.17648699193989
ONEWEB-0490             
1 54113U 22138A   26018.62387299  .00000015  00000+0  62251-5 0  9999
2 54113  87.9244 334.7223 0001614  75.6045 284.5267 13.19725988157104
ONEWEB-0492             
1 54114U 22138B   26018.57331935  .00000074  00000+0  15288-3 0  9991
2 54114  87.9238 334.7443 0001539  80.3759 279.7547 13.19726162157105
ONEWEB-0495             
1 54115U 22138C   26018.62702431 -.00000051  00000+0 -16034-3 0  9998
2 54115  87.9232 334.7363 0001391  57.2823 302.8444 13.19726522157094
ONEWEB-0497             
1 54116U 22138D   26018.41221710  .00000061  00000+0  11961-3 0  9995
2 54116  87.9239 334.7678 0001685  77.8362 282.2959 13.19726227157053
ONEWEB-0499             
1 54117U 22138E   26018.62307263 -.00000101  00000+0 -28336-3 0  9998
2 54117  87.9233 334.7372 0001831  73.1635 286.9698 13.19724239157090
ONEWEB-0500             
1 54118U 22138F   26018.62544800 -.00000031  00000+0 -11010-3 0  9992
2 54118  87.9236 334.7252 0001729  82.7087 277.4242 13.19726761157108
ONEWEB-0501             
1 54119U 22138G   26018.57964563  .00000064  00000+0  12832-3 0  9996
2 54119  87.9242 334.7353 0001599  69.2837 290.8467 13.19726624157078
ONEWEB-0502             
1 54120U 22138H   26018.56542962  .00000125  00000+0  27885-3 0  9994
2 54120  87.9244 334.7193 0001731  70.3711 289.7608 13.19725798157093
