[{"OBJECT_NAME":"ONEWEB-0458","OBJECT_ID":"2022-012AC","EPOCH":"2026-01-18T12:40:40.984896","MEAN_MOTION":13.10370501,"ECCENTRICITY":0.00019056,"INCLINATION":87.8774,"RA_OF_ASC_NODE":66.084,"ARG_OF_PERICENTER":95.4165,"MEAN_ANOMALY":264.7179,"EPHEMERIS_TYPE":0,"CLASSIFICATION_TYPE":"U","NORAD_CAT_ID":51648,"ELEMENT_SET_NO":999,"REV_AT_EPOCH":18970,"BSTAR":-0.0011456571,"MEAN_MOTION_DOT":-3.87e-6,"MEAN_MOTION_DDOT":0},{"OBJECT_NAME":"ONEWEB-0461","OBJECT_ID":"2022-012AD","EPOCH":"2026-01-18T15:14:09.811392","MEAN_MOTION":13.17650374,"ECCENTRICITY":0.00018327,"INCLINATION":87.9092,"RA_OF_ASC_NODE":35.5688,"ARG_OF_PERICENTER":96.5358,"MEAN_ANOMALY":263.5982,"EPHEMERIS_TYPE":0,"CLASSIFICATION_TYPE":"U","NORAD_CAT_ID":51649,"ELEMENT_SET_NO":999,"REV_AT_EPOCH":19419,"BSTAR":0.00012782404,"MEAN_MOTION_DOT":6.3e-7,"MEAN_MOTION_DDOT":0},{"OBJECT_NAME":"ONEWEB-0463","OBJECT_ID":"2022-012AE","EPOCH":"2026-01-18T11:08:45.376512","MEAN_MOTION":13.17648549,"ECCENTRICITY":0.0001811,"INCLINATION":87.908,"RA_OF_ASC_NODE":35.6405,"ARG_OF_PERICENTER":96.6302,"MEAN_ANOMALY":263.5036,"EPHEMERIS_TYPE":0,"CLASSIFICATION_TYPE":"U","NORAD_CAT_ID":51650,"ELEMENT_SET_NO":999,"REV_AT_EPOCH":19395,"BSTAR":-4.1888697e-5,"MEAN_MOTION_DOT":-3.0e-8,"MEAN_MOTION_DDOT":0},{"OBJECT_NAME":"ONEWEB-0464","OBJECT_ID":"2022-012AF","EPOCH":"2026-01-18T12:35:54.035808","MEAN_MOTION":13.10370665,"ECCENTRICITY":0.00015398,"INCLINATION":87.8763,"RA_OF_ASC_NODE":66.1174,"ARG_OF_PERICENTER":94.9189,"MEAN_ANOMALY":265.2114,"EPHEMERIS_TYPE":0,"CLASSIFICATION_TYPE":"U","NORAD_CAT_ID":51651,"ELEMENT_SET_NO":999,"REV_AT_EPOCH":18972,"BSTAR":-0.00079496625,"MEAN_MOTION_DOT":-2.65e-6,"MEAN_MOTION_DDOT":0},{"OBJECT_NAME":"ONEWEB-0468","OBJECT_ID":"2022-012AG","EPOCH":"2026-01-18T12:45:27.544320","MEAN_MOTION":13.10371359,"ECCENTRICITY":0.00017356,"INCLINATION":87.8767,"RA_OF_ASC_NODE":66.1096,"ARG_OF_PERICENTER":92.4833,"MEAN_ANOMALY":267.6493,"EPHEMERIS_TYPE":0,"CLASSIFICATION_TYPE":"U","NORAD_CAT_ID":51652,"ELEMENT_SET_NO":999,"REV_AT_EPOCH":18970,"BSTAR":-0.0015053112,"MEAN_MOTION_DOT":-5.13e-6,"MEAN_MOTION_DDOT":0},{"OBJECT_NAME":"ONEWEB-0473","OBJECT_ID":"2022-012AH","EPOCH":"2026-01-18T14:13:55.021152","MEAN_MOTION":13.10370342,"ECCENTRICITY":0.00018168,"INCLINATION":87.8761,"RA_OF_ASC_NODE":66.1001,"ARG_OF_PERICENTER":95.0476,"MEAN_ANOMALY":265.0859,"EPHEMERIS_TYPE":0,"CLASSIFICATION_TYPE":"U","NORAD_CAT_ID":51653,"ELEMENT_SET_NO":999,"REV_AT_EPOCH":18971,"BSTAR":0.00039977986,"MEAN_MOTION_DOT":1.52e-6,"MEAN_MOTION_DDOT":0},{"OBJECT_NAME":"ONEWEB-0474","OBJECT_ID":"2022-012AJ","EPOCH":"2026-01-18T14:01:58.463616","MEAN_MOTION":13.10371702,"ECCENTRICITY":0.00016447,"INCLINATION":87.8773,"RA_OF_ASC_NODE":66.0718,"ARG_OF_PERICENTER":90.5007,"MEAN_ANOMALY":269.6309,"EPHEMERIS_TYPE":0,"CLASSIFICATION_TYPE":"U","NORAD_CAT_ID":51654,"ELEMENT_SET_NO":999,"REV_AT_EPOCH":18970,"BSTAR":0.0015789017,"MEAN_MOTION_DOT":5.64e-6,"MEAN_MOTION_DDOT":0},{"OBJECT_NAME":"ONEWEB-0475","OBJECT_ID":"2022-012AK","EPOCH":"2026-01-18T13:15:06.214464","MEAN_MOTION":13.17648699,"ECCENTRICITY":0.00019104,"INCLINATION":87.9079,"RA_OF_ASC_NODE":35.6141,"ARG_OF_PERICENTER":70.9958,"MEAN_ANOMALY":289.1381,"EPHEMERIS_TYPE":0,"CLASSIFICATION_TYPE":"U","NORAD_CAT_ID":51655,"ELEMENT_SET_NO":999,"REV_AT_EPOCH":19398,"BSTAR":9.731444e-5,"MEAN_MOTION_DOT":5.1e-7,"MEAN_MOTION_DDOT":0},{"OBJECT_NAME":"ONEWEB-0490","OBJECT_ID":"2022-138A","EPOCH":"2026-01-18T14:58:22.626336","MEAN_MOTION":13.19725988,"ECCENTRICITY":0.00016144,"INCLINATION":87.9244,"RA_OF_ASC_NODE":334.7223,"ARG_OF_PERICENTER":75.6045,"MEAN_ANOMALY":284.5267,"EPHEMERIS_TYPE":0,"CLASSIFICATION_TYPE":"U","NORAD_CAT_ID":54113,"ELEMENT_SET_NO":999,"REV_AT_EPOCH":15710,"BSTAR":6.225102e-6,"MEAN_MOTION_DOT":1.5e-7,"MEAN_MOTION_DDOT":0},{"OBJECT_NAME":"ONEWEB-0492","OBJECT_ID":"2022-138B","EPOCH":"2026-01-18T13:45:34.791840","MEAN_MOTION":13.19726162,"ECCENTRICITY":0.0001539,"INCLINATION":87.9238,"RA_OF_ASC_NODE":334.7443,"ARG_OF_PERICENTER":80.3759,"MEAN_ANOMALY":279.7547,"EPHEMERIS_TYPE":0,"CLASSIFICATION_TYPE":"U","NORAD_CAT_ID":54114,"ELEMENT_SET_NO":999,"REV_AT_EPOCH":15710,"BSTAR":0.00015288322,"MEAN_MOTION_DOT":7.4e-7,"MEAN_MOTION_DDOT":0},{"OBJECT_NAME":"ONEWEB-0495","OBJECT_ID":"2022-138C","EPOCH":"2026-01-18T15:02:54.900384","MEAN_MOTION":13.19726522,"ECCENTRICITY":0.00013917,"INCLINATION":87.9232,"RA_OF_ASC_NODE":334.7363,"ARG_OF_PERICENTER":57.2823,"MEAN_ANOMALY":302.8444,"EPHEMERIS_TYPE":0,"CLASSIFICATION_TYPE":"U","NORAD_CAT_ID":54115,"ELEMENT_SET_NO":999,"REV_AT_EPOCH":15709,"BSTAR":-0.00016033898,"MEAN_MOTION_DOT":-5.1e-7,"MEAN_MOTION_DDOT":0},{"OBJECT_NAME":"ONEWEB-0497","OBJECT_ID":"2022-138D","EPOCH":"2026-01-18T09:53:35.557440","MEAN_MOTION":13.19726227,"ECCENTRICITY":0.00016856,"INCLINATION":87.9239,"RA_OF_ASC_NODE":334.7678,"ARG_OF_PERICENTER":77.8362,"MEAN_ANOMALY":282.2959,"EPHEMERIS_TYPE":0,"CLASSIFICATION_TYPE":"U","NORAD_CAT_ID":54116,"ELEMENT_SET_NO":999,"REV_AT_EPOCH":15705,"BSTAR":0.00011961072,"MEAN_MOTION_DOT":6.1e-7,"MEAN_MOTION_DDOT":0},{"OBJECT_NAME":"ONEWEB-0499","OBJECT_ID":"2022-138E","EPOCH":"2026-01-18T14:57:13.475232","MEAN_MOTION":13.19724239,"ECCENTRICITY":0.00018317,"INCLINATION":87.9233,"RA_OF_ASC_NODE":334.7372,"ARG_OF_PERICENTER":73.1635,"MEAN_ANOMALY":286.9698,"EPHEMERIS_TYPE":0,"CLASSIFICATION_TYPE":"U","NORAD_CAT_ID":54117,"ELEMENT_SET_NO":999,"REV_AT_EPOCH":15709,"BSTAR":-0.00028335967,"MEAN_MOTION_DOT":-1.01e-6,"MEAN_MOTION_DDOT":0},{"OBJECT_NAME":"ONEWEB-0500","OBJECT_ID":"2022-138F","EPOCH":"2026-01-18T15:00:38.707200","MEAN_MOTION":13.19726761,"ECCENTRICITY":0.00017293,"INCLINATION":87.9236,"RA_OF_ASC_NODE":334.7252,"ARG_OF_PERICENTER":82.7087,"MEAN_ANOMALY":277.4242,"EPHEMERIS_TYPE":0,"CLASSIFICATION_TYPE":"U","NORAD_CAT_ID":54118,"ELEMENT_SET_NO":999,"REV_AT_EPOCH":15710,"BSTAR":-0.00011009513,"MEAN_MOTION_DOT":-3.1e-7,"MEAN_MOTION_DDOT":0},{"OBJECT_NAME":"ONEWEB-0501","OBJECT_ID":"2022-138G","EPOCH":"2026-01-18T13:54:41.382432","MEAN_MOTION":13.19726624,"ECCENTRICITY":0.00015996,"INCLINATION":87.9242,"RA_OF_ASC_NODE":334.7353,"ARG_OF_PERICENTER":69.2837,"MEAN_ANOMALY":290.8467,"EPHEMERIS_TYPE":0,"CLASSIFICATION_TYPE":"U","NORAD_CAT_ID":54119,"ELEMENT_SET_NO":999,"REV_AT_EPOCH":15707,"BSTAR":0.00012832453,"MEAN_MOTION_DOT":6.4e-7,"MEAN_MOTION_DDOT":0},{"OBJECT_NAME":"ONEWEB-0502","OBJECT_ID":"2022-138H","EPOCH":"2026-01-18T13:34:13.119168","MEAN_MOTION":13.19725798,"ECCENTRICITY":0.0001731,"INCLINATION":87.9244,"RA_OF_ASC_NODE":334.7193,"ARG_OF_PERICENTER":70.3711,"MEAN_ANOMALY":289.7608,"EPHEMERIS_TYPE":0,"CLASSIFICATION_TYPE":"U","NORAD_CAT_ID":54120,"ELEMENT_SET_NO":999,"REV_AT_EPOCH":15709,"BSTAR":0.0002788524,"MEAN_MOTION_DOT":1.25e-6,"MEAN_MOTION_DDOT":0}]
